NORAD_CAT_ID,OBJECT_NAME,OBJECT_TYPE,EPOCH,MEAN_MOTION,ECCENTRICITY,INCLINATION,RA_OF_ASC_NODE,ARG_OF_PERICENTER,MEAN_ANOMALY,BSTAR,MEAN_MOTION_DOT,MEAN_MOTION_DDOT,TLE_LINE0,TLE_LINE1,TLE_LINE2,SEMIMAJOR_AXIS,PERIOD,APOGEE,PERIGEE,DECAYED
52501.0,STARLINK-3907,PAYLOAD,2022-06-02 15:37:58,15.73210132,0.0002539,53.217,131.4298,28.1598,331.9559,-2.4932e-05,-4.122e-05,0.0,0 STARLINK-3907,1 52501U 22049BC  22153.65136683 -.00004122  00000-0 -24932-4 0  9996,2 52501  53.2170 131.4298 0002539  28.1598 331.9559 15.73210132  4300,6727.866,91.533,351.439,348.023,0.0
52501.0,STARLINK-3907,PAYLOAD,2022-06-03 05:21:17,15.73199116,0.0002375,53.2172,128.6009,27.5768,332.5378,-3.7308e-05,-5.855e-05,0.0,0 STARLINK-3907,1 52501U 22049BC  22154.22312129 -.00005855  00000-0 -37308-4 0  9996,2 52501  53.2172 128.6009 0002375  27.5768 332.5378 15.73199116  4551,6727.898,91.533,351.361,348.165,0.0
52501.0,STARLINK-3907,PAYLOAD,2022-06-03 11:27:54,15.71924665,0.0005242,53.2172,127.3466,79.3585,280.8025,-0.0029121,-0.00371506,0.0,0 STARLINK-3907,1 52501U 22049BC  22154.47771417 -.00371506  00000-0 -29121-2 0  9993,2 52501  53.2172 127.3466 0005242  79.3585 280.8025 15.71924665  4593,6731.534000000002,91.607,356.927,349.87,0.0
52501.0,STARLINK-3907,PAYLOAD,2022-06-05 22:00:00,15.72754697,0.0001887,53.2173,115.2712,34.8726,109.1959,0.0048138999999999,0.00722611,0.0,0 STARLINK-3907,1 52501U 22049BC  22156.91667824  .00722611  00000-0  48139-2 0  9995,2 52501  53.2173 115.2712 0001887  34.8726 109.1959 15.72754697  4976,6729.165,91.559,352.3,349.76,0.0
52501.0,STARLINK-3907,PAYLOAD,2022-06-06 14:00:01,15.73194339,0.000202,53.2174,111.9734,24.3194,297.5845,7.001199999999999e-05,9.214e-05,0.0,0 STARLINK-3907,1 52501U 22049BC  22157.58334491  .00009214  00000-0  70012-4 0  9994,2 52501  53.2174 111.9734 0002020  24.3194 297.5845 15.73194339  5077,6727.911,91.534,351.135,348.417,0.0
52501.0,STARLINK-3907,PAYLOAD,2022-06-06 22:00:00,15.73231951,0.0001974,53.2175,110.3237,30.421,20.4067,-0.00048426,-0.00068134,0.0,0 STARLINK-3907,1 52501U 22049BC  22157.91667824 -.00068134  00000-0 -48426-3 0  9991,2 52501  53.2175 110.3237 0001974  30.4210  20.4067 15.73231951  1306,6727.804,91.531,350.997,348.341,0.0
52501.0,STARLINK-3907,PAYLOAD,2022-06-07 14:00:01,15.73220448,0.0002066,53.2175,107.0251,31.0106,197.6721,8.4777e-05,0.00011304,0.0,0 STARLINK-3907,1 52501U 22049BC  22158.58334491  .00011304  00000-0  84777-4 0  9991,2 52501  53.2175 107.0251 0002066  31.0106 197.6721 15.73220448  1302,6727.837,91.532,351.092,348.31199999999984,0.0
52501.0,STARLINK-3907,PAYLOAD,2022-06-07 22:00:00,15.7327684,0.0001906,53.2178,105.3751,31.6185,286.038,-0.000417,-0.00058932,0.0,0 STARLINK-3907,1 52501U 22049BC  22158.91667824 -.00058932  00000-0 -41700-3 0  9995,2 52501  53.2178 105.3751 0001906  31.6185 286.0380 15.73276840  5288,6727.676,91.529,350.8230000000001,348.259,0.0
52501.0,STARLINK-3907,PAYLOAD,2022-06-08 14:00:01,15.73231789,0.0001924,53.2175,102.0761,25.627,109.9712,-0.00048144,-0.00067743,0.0,0 STARLINK-3907,1 52501U 22049BC  22159.58334491 -.00067743  00000-0 -48144-3 0  9999,2 52501  53.2175 102.0761 0001924  25.6270 109.9712 15.73231789  1302,6727.805,91.531,350.964,348.375,0.0
52501.0,STARLINK-3907,PAYLOAD,2022-06-08 22:00:01,15.73166758,0.0002055,53.2176,100.4267,36.2426,188.3409,-0.00054673,-0.00076555,0.0,0 STARLINK-3907,1 52501U 22049BC  22159.91668981 -.00076555  00000-0 -54673-3 0  9995,2 52501  53.2176 100.4267 0002055  36.2426 188.3409 15.73166758  5449,6727.99,91.535,351.23800000000006,348.472,0.0
52501.0,STARLINK-3907,PAYLOAD,2022-06-09 14:00:01,15.73133692,0.0002062,53.2175,97.128,37.8324,4.3726,0.00031233,0.00043317,0.0,0 STARLINK-3907,1 52501U 22049BC  22160.58334491  .00043317  00000-0  31233-3 0  9991,2 52501  53.2175  97.1280 0002062  37.8324   4.3726 15.73133692  1308,6728.084,91.537,351.337,348.56199999999984,0.0
52501.0,STARLINK-3907,PAYLOAD,2022-06-09 22:00:00,15.73176846,0.0002132,53.2179,95.4787,40.7362,90.3201,0.0001028,0.00013817,0.0,0 STARLINK-3907,1 52501U 22049BC  22160.91667824  .00013817  00000-0  10280-3 0  9998,2 52501  53.2179  95.4787 0002132  40.7362  90.3201 15.73176846  1309,6727.9609999999975,91.535,351.261,348.392,0.0
52501.0,STARLINK-3907,PAYLOAD,2022-06-10 00:00:00,15.73182614,0.0002199,53.2178,95.067,39.1477,204.1331,4.0552e-05,5.07e-05,0.0,0 STARLINK-3907,1 52501U 22049BC  22161.00001157  .00005070  00000-0  40552-4 0  9998,2 52501  53.2178  95.0670 0002199  39.1477 204.1331 15.73182614  5614,6727.945,91.534,351.289,348.33,0.0
52501.0,STARLINK-3907,PAYLOAD,2022-06-10 08:00:01,15.73197376,0.0002301,53.2176,93.418,35.2006,297.0105,0.00039757,0.00055543,0.0,0 STARLINK-3907,1 52501U 22049BC  22161.33334491  .00055543  00000-0  39757-3 0  9998,2 52501  53.2176  93.4180 0002301  35.2006 297.0105 15.73197376  5666,6727.903,91.533,351.316,348.22,0.0
52501.0,STARLINK-3907,PAYLOAD,2022-06-10 14:00:01,15.73212869,0.00021,53.2178,92.1792,39.3775,269.5469,0.00031081,0.00043251,0.0,0 STARLINK-3907,1 52501U 22049BC  22161.58334491  .00043251  00000-0  31081-3 0  9990,2 52501  53.2178  92.1792 0002100  39.3775 269.5469 15.73212869  1307,6727.858,91.532,351.136,348.311,0.0
52501.0,STARLINK-3907,PAYLOAD,2022-06-10 22:00:00,15.73311157,0.0001966,53.218,90.5301,37.7897,0.1175,-0.00073777,-0.00103398,0.0,0 STARLINK-3907,1 52501U 22049BC  22161.91667824 -.00103398  00000-0 -73777-3 0  9995,2 52501  53.2180  90.5301 0001966  37.7897   0.1175 15.73311157  1307,6727.578,91.527,350.766,348.121,0.0
52501.0,STARLINK-3907,PAYLOAD,2022-06-11 06:00:00,15.73228668,0.0002019,53.2177,88.8822,29.6697,97.2419,9.7278e-05,0.0001307,0.0,0 STARLINK-3907,1 52501U 22049BC  22162.25001157  .00013070  00000-0  97278-4 0  9992,2 52501  53.2177  88.8822 0002019  29.6697  97.2419 15.73228668  5811,6727.813,91.532,351.037,348.32,0.0
52501.0,STARLINK-3907,PAYLOAD,2022-06-11 22:00:00,15.73252854,0.0001857,53.2185,85.5815,34.1266,270.6825,-0.00066277,-0.00092832,0.0,0 STARLINK-3907,1 52501U 22049BC  22162.91667824 -.00092832  00000-0 -66277-3 0  9993,2 52501  53.2185  85.5815 0001857  34.1266 270.6825 15.73252854  5911,6727.744000000002,91.53,350.8590000000001,348.36,0.0
52501.0,STARLINK-3907,PAYLOAD,2022-06-12 06:00:02,15.73169744,0.0002103,53.2184,83.9336,31.9319,1.9077,0.00060783,0.00085449,0.0,0 STARLINK-3907,1 52501U 22049BC  22163.25002315  .00085449  00000-0  60783-3 0  9999,2 52501  53.2184  83.9336 0002103  31.9319   1.9077 15.73169744  5974,6727.981,91.535,351.261,348.432,0.0
52501.0,STARLINK-3907,PAYLOAD,2022-06-12 14:00:01,15.73211601,0.0001862,53.2175,82.28,31.5625,90.9382,-6.8619e-05,-0.00010245,0.0,0 STARLINK-3907,1 52501U 22049BC  22163.58334491 -.00010245  00000-0 -68619-4 0  9999,2 52501  53.2175  82.2800 0001862  31.5625  90.9382 15.73211601  6023,6727.861999999999,91.533,350.98,348.474,0.0
52501.0,STARLINK-3907,PAYLOAD,2022-06-12 22:00:00,15.73454506,0.0001889,53.2182,80.6317,32.0129,179.5998,-0.0054037,-0.00706263,0.0,0 STARLINK-3907,1 52501U 22049BC  22163.91667824 -.00706263  00000-0 -54037-2 0  9994,2 52501  53.2182  80.6317 0001889  32.0129 179.5998 15.73454506  6075,6727.17,91.518,350.305,347.764,0.0
52501.0,STARLINK-3907,PAYLOAD,2022-06-13 06:00:02,15.73190485,0.0001908,53.2182,78.9856,25.4602,275.2509,0.00046422,0.00065011,0.0,0 STARLINK-3907,1 52501U 22049BC  22164.25002315  .00065011  00000-0  46422-3 0  9997,2 52501  53.2182  78.9856 0001908  25.4602 275.2509 15.73190485  6128,6727.922,91.534,351.071,348.504,0.0
52501.0,STARLINK-3907,PAYLOAD,2022-06-13 14:00:01,15.73242525,0.0001705,53.2185,77.334,31.3183,358.2726,-0.0002962,-0.0004206,0.0,0 STARLINK-3907,1 52501U 22049BC  22164.58334491 -.00042060  00000-0 -29620-3 0  9998,2 52501  53.2185  77.3340 0001705  31.3183 358.2726 15.73242525  1308,6727.774,91.531,350.786,348.492,0.0
52501.0,STARLINK-3907,PAYLOAD,2022-06-13 22:00:00,15.73210052,0.0001931,53.2189,75.6856,38.3533,80.2166,-0.00026413,-0.00037543,0.0,0 STARLINK-3907,1 52501U 22049BC  22164.91667824 -.00037543  00000-0 -26413-3 0  9991,2 52501  53.2189  75.6856 0001931  38.3533  80.2166 15.73210052  6239,6727.8669999999975,91.533,351.031,348.432,0.0
52501.0,STARLINK-3907,PAYLOAD,2022-06-14 14:00:01,15.73160338,0.0001862,53.2187,72.3862,39.362,257.0405,-0.00024871,-0.00035322,0.0,0 STARLINK-3907,1 52501U 22049BC  22165.58334491 -.00035322  00000-0 -24871-3 0  9995,2 52501  53.2187  72.3862 0001862  39.3620 257.0405 15.73160338  1303,6728.0080000000025,91.535,351.126,348.62,0.0
52501.0,STARLINK-3907,PAYLOAD,2022-06-14 22:00:00,15.73144509,0.0002012,53.2187,70.7381,42.2475,343.0371,9.6422e-05,0.00012901,0.0,0 STARLINK-3907,1 52501U 22049BC  22165.91667824  .00012901  00000-0  96422-4 0  9999,2 52501  53.2187  70.7381 0002012  42.2475 343.0371 15.73144509  6394,6728.053000000001,91.536,351.272,348.565,0.0
52501.0,STARLINK-3907,PAYLOAD,2022-06-15 14:00:01,15.73174511,0.0001798,53.2183,67.4383,42.9548,160.1062,0.00065213,0.00091809,0.0,0 STARLINK-3907,1 52501U 22049BC  22166.58334491  .00091809  00000-0  65213-3 0  9991,2 52501  53.2183  67.4383 0001798  42.9548 160.1062 15.73174511  6495,6727.968000000003,91.535,351.043,348.62300000000016,0.0
52501.0,STARLINK-3907,PAYLOAD,2022-06-15 22:00:00,15.73256584,0.0001858,53.2185,65.7902,40.0406,251.955,-0.00059147,-0.00083021,0.0,0 STARLINK-3907,1 52501U 22049BC  22166.91667824 -.00083021  00000-0 -59147-3 0  9995,2 52501  53.2185  65.7902 0001858  40.0406 251.9550 15.73256584  6542,6727.734,91.53,350.849,348.349,0.0
52501.0,STARLINK-3907,PAYLOAD,2022-06-16 02:00:01,15.73197219,0.0001882,53.2186,64.9662,34.4555,122.067,0.00059977,0.00084395,0.0,0 STARLINK-3907,1 52501U 22049BC  22167.08334491  .00084395  00000-0  59977-3 0  9999,2 52501  53.2186  64.9662 0001882  34.4555 122.0670 15.73197219  1305,6727.903,91.533,351.034,348.50199999999984,0.0
